C/2023 X2 (Lemmon),h,12/26.8748/2025,77.0031,66.3133,64.6019,1.001610,5.093610,2000,8.5,3.2
# From MPEC 2024-A43
P/2023 X3 (PANSTARRS),e,4.4834,62.0124,40.8245,4.245569,0.1126679,0.28627382,16.1146,09/12.0/2024,2000,g 15.5,4.0
# From MPEC 2024-JU4
C/2023 X4 (Hogan),e,11.5947,28.7661,100.5513,9.912103,0.0315831,0.63095051,3.4799,09/12.0/2024,2000,g 12.0,4.0
# From MPEC 2024-DA2
C/2023 X7 (PANSTARRS),h,05/14.9322/2025,69.0564,119.2070,354.3564,1.002470,4.820762,2000,9.0,4.0
# From MPEC 2024-JU4
P/2023 Y1 (Gibbs),e,6.3841,78.8560,51.4497,3.749013,0.1357777,0.44521935,38.9950,09/12.0/2024,2000,g 17.0,4.0
# From MPEC 2024-F34
P/2023 Y2 (Gibbs),e,6.9928,79.2284,16.8469,3.745644,0.1359610,0.39226292,54.2531,09/12.0/2024,2000,g 15.5,4.0
# From MPEC 2024-RQ6
C/2024 A1 (ATLAS),h,06/13.7016/2025,94.4465,112.1412,353.3045,1.001392,3.875555,2000,7.0,4.0
# From MPEC 2024-RQ6
C/2024 A2 (ATLAS),e,119.1133,78.1665,295.5841,32.48011,0.0053245,0.94206808,0.7245,09/12.0/2024,2000,g 12.5,4.0
# From MPEC 2024-RQ6
C/2024 B1 (Lemmon),h,10/07.7016/2024,70.9049,79.1877,66.2098,1.000828,1.633640,2000,13.0,4.0
# From MPEC 2024-GJ3
C/2024 B2 (Lemmon),e,99.8415,294.3783,130.3319,4550,0.0000032,0.99910397,0.0000,10/06.0847/2023,2000,g 11.5,4.0
# From MPEC 2024-M41
C/2024 C1 (PANSTARRS),e,14.2268,83.8103,94.4658,10.56482,0.0287019,0.58229899,0.3481,09/12.0/2024,2000,g 11.5,4.0
# From MPEC 2024-JU4
C/2024 C2 (PANSTARRS),e,27.2844,66.4416,87.5376,16.19703,0.0151200,0.44487384,357.2883,09/12.0/2024,2000,g  6.0,4.0
# From MPEC 2024-GJ3
C/2024 C3 (PANSTARRS),e,22.4623,359.7091,159.6508,11.65174,0.0247810,0.42389681,7.6548,09/12.0/2024,2000,g  9.0,4.0
# From MPEC 2024-Q20
C/2024 C4 (ATLAS),e,79.2864,220.6839,321.5179,83.94031,0.0012816,0.98247395,0.0000,01/30.1948/2024,2000,g 14.5,4.0
# From MPEC 2024-EG1
A/2024 D1,e,132.4502,179.6677,125.7408,1768,0.0000133,0.99620924,0.0000,12/05.0649/2027,2000,g 11.0,2.0
# From MPEC 2024-RQ6
C/2024 E1 (Wierzchos),h,01/20.7723/2026,75.2353,108.0995,243.6529,1.000010,0.565443,2000,7.0,4.0
# From MPEC 2024-JU4
C/2024 E2 (Bok),e,155.6480,135.6508,358.0584,51.70413,0.0026510,0.85122260,0.8586,09/12.0/2024,2000,g  8.0,4.0
# From MPEC 2024-JU4
P/2024 F1 (PANSTARRS),e,7.0054,251.5418,229.5494,3.443029,0.1542741,0.45988017,49.7275,09/12.0/2024,2000,g 16.0,4.0
# From MPEC 2024-Q20
C/2024 F2 (PANSTARRS),e,13.7409,138.9471,112.9108,9.949770,0.0314040,0.60116854,1.4086,09/12.0/2024,2000,g 11.0,4.0
# From MPEC 2024-RQ6
P/2024 FG9 (Nanshan-Hahn),e,1.7312,253.0440,245.9136,3.256482,0.1677185,0.50978066,19.2289,09/12.0/2024,2000,g 14.0,4.0
# From MPEC 2024-PC5
C/2024 G1 (Wierzchos),e,95.4006,30.5999,128.2253,121.6004,0.0007350,0.96767924,359.9713,09/12.0/2024,2000,g 10.0,4.0
# From MPEC 2024-JU4
C/2024 G2 (ATLAS),e,122.1315,171.3949,328.7904,893.3392,0.0000369,0.99401608,0.0000,06/13.7779/2025,2000,g  7.0,4.0
# From MPEC 2024-RQ6
C/2024 G3 (ATLAS),h,01/13.4284/2025,116.8477,220.3371,108.1250,1.000010,0.093521,2000,9.0,4.0
# From MPEC 2024-P23
C/2024 G4 (PANSTARRS),e,33.0273,152.9972,131.4297,3059,0.0000058,0.99839832,0.0000,03/21.7609/2026,2000,g  8.0,4.0
# From MPEC 2024-JC6
C/2024 G5 (Leonard),e,50.3889,316.3985,209.5630,542.5180,0.0000780,0.99455713,0.0000,09/07.0015/2024,2000,g 13.0,4.0
# From MPEC 2024-RQ6
C/2024 G6 (ATLAS),h,02/21.0351/2026,120.4573,250.9520,23.4684,1.002337,6.428766,2000,5.5,4.0
# From MPEC 2024-Q20
C/2024 G7 (ATLAS),h,02/10.2682/2025,131.5187,191.9491,289.6622,1.001696,6.027661,2000,7.0,4.0
# From MPEC 2024-Q05
A/2024 G8,e,97.4107,11.2472,249.1582,143.7647,0.0005718,0.99184513,0.0000,06/15.6051/2024,2000,g 20.0,2.0
# From MPEC 2024-JU4
P/2024 J1 (PANSTARRS),e,13.1579,321.9509,200.3419,3.807968,0.1326368,0.30752877,40.5621,09/12.0/2024,2000,g 14.5,4.0
# From MPEC 2024-RQ6
C/2024 J2 (Wierzchos),e,79.2958,189.0604,143.1544,149.4593,0.0005394,0.98788449,0.0000,03/19.7458/2025,2000,g 11.5,4.0
# From MPEC 2024-RQ6
C/2024 J3 (ATLAS),h,11/25.3284/2026,75.6291,285.9634,74.0944,1.000835,3.864748,2000,5.0,4.0
# From MPEC 2024-Q20
C/2024 J4 (Lemmon),e,117.5353,19.2958,127.8685,4087,0.0000038,0.99860649,0.0000,04/26.1682/2025,2000,g  8.0,4.0
# From MPEC 2024-LB4
P/2024 K1 (PANSTARRS),e,1.7862,251.6907,351.9616,6.846925,0.0550124,0.49524496,6.9251,09/12.0/2024,2000,g 13.5,4.0
# From MPEC 2024-RQ6
C/2024 L1 (PANSTARRS),e,99.1721,45.1390,171.8355,11.46034,0.0254043,0.53337062,354.3206,09/12.0/2024,2000,g 10.0,4.0
# From MPEC 2024-P23
C/2024 L2 (PANSTARRS),e,139.4865,266.2868,345.6506,458.1406,0.0001005,0.98182654,0.0000,06/13.3796/2025,2000,g  7.5,3.2
# From MPEC 2024-RQ6
C/2024 L3 (PANSTARRS),h,11/24.4974/2023,111.5921,294.9845,59.0926,1.004705,6.858366,2000,9.5,4.0
# From MPEC 2024-RQ6
P/2024 L4 (Rankin),e,10.0460,139.7767,53.7098,2.228500,0.2962682,0.69837217,44.6502,09/12.0/2024,2000,g 21.5,4.0
# From MPEC 2024-RQ6
C/2024 L5 (ATLAS),h,03/10.4750/2025,166.5731,139.1676,290.5262,1.037395,3.431898,2000,9.0,4.0
# From MPEC 2024-RQ6
C/2024 M1 (ATLAS),e,73.7101,76.2152,345.6044,29.86218,0.0060398,0.94295927,359.5830,09/12.0/2024,2000,g 12.0,4.0
# From MPEC 2024-RQ6
C/2024 N1 (PANSTARRS),h,10/18.8389/2025,88.7708,323.0098,91.2468,1.001012,4.398310,2000,10.5,4.0
# From MPEC 2024-RQ6
P/2024 N2 (PANSTARRS),e,7.7898,245.0458,48.8834,3.795585,0.1332864,0.35705113,13.8551,09/12.0/2024,2000,g 16.0,4.0
# From MPEC 2024-RQ6
C/2024 N3 (Sarneczky),h,04/11.3112/2025,88.7293,82.6090,86.8675,1.000808,5.014784,2000,8.0,4.0
# From MPEC 2024-R10
C/2024 N4 (Sarneczky),h,01/09.9213/2025,49.7688,339.6760,116.6664,1.005808,5.398201,2000,7.5,4.0
# From MPEC 2024-RQ6
P/2024 N6 (NEAT-PANSTARRS),e,11.3645,324.0733,1.4559,3.732029,0.1367057,0.55042481,15.8346,09/12.0/2024,2000,g 16.5,4.0
# From MPEC 2024-PC5
C/2024 O1 (PANSTARRS),h,01/29.0315/2023,59.0722,303.3346,349.9266,1.001367,6.608220,2000,8.5,4.0
# From MPEC 2024-RQ6
P/2024 O2 (PANSTARRS),e,28.9693,6.8104,310.7160,7.390172,0.0490594,0.49975841,7.1213,09/12.0/2024,2000,g 12.0,4.0
# From MPEC 2024-RQ6
P/2024 Q1 (PANSTARRS),e,5.0155,23.1378,284.4091,3.517157,0.1494227,0.53475793,13.3687,09/12.0/2024,2000,g 17.0,4.0
# From MPEC 2024-RQ6
C/2024 Q3 (PANSTARRS),h,03/05.1845/2025,121.3814,337.2842,70.1073,1.001924,2.091981,2000,15.0,4.0
# From MPEC 2024-RQ6
P/2024 R1 (PANSTARRS),e,12.7364,84.9832,230.5783,3.450552,0.1537698,0.49291137,13.5833,09/12.0/2024,2000,g 18.0,4.0
# From MPEC 2024-RK2
P/2024 R2 (PANSTARRS),e,15.1052,193.0256,203.9619,3.132291,0.1777915,0.26523390,356.4644,09/12.0/2024,2000,g 15.5,4.0
# From  98, 1083
1P/Halley,e,162.2070,59.6962,112.6083,17.86651,0.0130510,0.96705443,183.6519,09/12.0/2024,2000,g  4.0,6.0
# From MPEC 2024-RQ6
2P/Encke,e,11.3393,334.0148,187.2836,2.218370,0.2982999,0.84698430,97.0869,09/12.0/2024,2000,g 11.5,6.0
# From  76, 1135
3D/Biela,e,7.8876,276.1866,192.2892,3.539294,0.1480230,0.76749864,317.4860,09/12.0/2024,2000,g 11.0,6.0
# From  76, 1135
3D-A/Biela,e,7.2154,276.6856,192.1199,3.550381,0.1473301,0.76713192,348.0482,09/12.0/2024,2000,g 11.0,6.0
# From  76, 1135
3D-B/Biela,e,7.8797,276.2013,192.2502,3.540043,0.1479760,0.76779666,317.2219,09/12.0/2024,2000,g 11.0,6.0
# From MPEC 2023-FK0
4P/Faye,e,8.0065,192.9210,207.1142,3.829047,0.1315431,0.57663451,144.5500,09/12.0/2024,2000,g  8.0,6.0
# From  27, 116
5D/Brorsen,e,18.6281,94.9056,20.3016,3.158288,0.1756008,0.83776315,90.2283,09/12.0/2024,2000,g 10.5,6.0
# From MPEC 2022-WD2
6P/d'Arrest,e,19.5008,138.9503,178.0761,3.497530,0.1506822,0.61195498,164.3975,09/12.0/2024,2000,g  7.5,16.0
# From MPEC 2023-A50
7P/Pons-Winnecke,e,22.4563,93.2727,172.4559,3.404191,0.1569218,0.64035794,188.9370,09/12.0/2024,2000,g 10.0,6.0
# From MPEC 2022-HC2
8P/Tuttle,e,54.9750,270.1753,207.4720,5.704323,0.0723432,0.82055071,80.3614,09/12.0/2024,2000,g  8.0,8.0
# From MPEC 2024-AF0
9P/Tempel,e,10.9400,67.3999,183.9599,3.244289,0.1686649,0.49177475,155.0860,09/12.0/2024,2000,g  5.5,10.0
# From MPEC 2024-R10
10P/Tempel,e,12.0285,117.8059,195.5156,3.063029,0.1838558,0.53748285,233.2912,09/12.0/2024,2000,g  5.0,10.0
# From MPEC 2024-R10
11P/Tempel-Swift-LINEAR,e,14.4347,238.8653,168.0352,3.283529,0.1656505,0.57756023,229.3530,09/12.0/2024,2000,g 17.0,4.0
# From MPEC 2024-RQ6
12P/Pons-Brooks,e,74.1919,255.8558,198.9885,17.18500,0.0138350,0.95456562,1.9905,09/12.0/2024,2000,g  5.0,6.0
# From MPEC 2024-RQ6
13P/Olbers,e,44.6658,85.8473,64.4161,16.85868,0.0142386,0.93027495,1.0530,09/12.0/2024,2000,g  5.0,6.0
# From MPEC 2024-LE0
14P/Wolf,e,27.9224,202.0350,159.1788,4.257018,0.1122137,0.35686189,277.3154,09/12.0/2024,2000,g  5.5,12.0
# From MPEC 2022-ED3
15P/Finlay,e,6.7915,13.7431,347.8749,3.510190,0.1498677,0.71646185,173.3509,09/12.0/2024,2000,g 12.0,4.0
# From MPEC 2022-X67
16P/Brooks,e,3.0102,138.8432,245.3494,3.661199,0.1406919,0.48599780,174.8096,09/12.0/2024,2000,g  7.5,10.0
# From MPEC 2023-J29
17P/Holmes,e,19.0125,326.6206,24.6223,3.640432,0.1418975,0.42670620,184.5601,09/12.0/2024,2000,g 10.0,6.0
# From  19, 80
18D/Perrine-Mrkos,e,17.656,158.468,238.233,3.88290,0.128816,0.5896049,1.776,09/12.0/2024,2000,g  9.0,4.0
# From MPEC 2024-JU4
19P/Borrelly,e,29.3171,74.2147,351.9889,3.607949,0.1438181,0.63789388,137.0364,09/12.0/2024,2000,g  4.5,10.0
# From MPEC 2024-LE0
21P/Giacobini-Zinner,e,32.0507,195.3353,172.9248,3.492666,0.1509971,0.71111096,330.6536,09/12.0/2024,2000,g  9.0,6.0
# From MPEC 2024-L77
22P/Kopff,e,4.7651,120.4689,162.9018,3.426901,0.1553645,0.55250447,141.0387,09/12.0/2024,2000,g  3.0,10.4
# From MPC 14747
23P/Brorsen-Metcalf,e,19.4025,311.4086,129.7579,16.93959,0.0141368,0.97256643,0.0000,05/21.1579/2059,2000,g 10.0,6.0
# From MPC110085
24P/Schaumasse,e,11.5060,78.3720,58.3965,4.056024,0.1206572,0.70805307,301.6785,09/12.0/2024,2000,g  6.5,14.0
# From NK 378
25D/Neujmin 2,e,2.8077,279.9847,244.7792,3.223458,0.1703025,0.55078074,318.8950,09/12.0/2024,2000,g 12.5,6.0
# From MPEC 2024-RQ6
26P/Grigg-Skjellerup,e,22.4332,211.5381,2.1376,3.015384,0.1882305,0.64057323,49.2537,09/12.0/2024,2000,g 12.0,16.0
# From MPC 78188
